[
    {
        "OBJECT_NAME": "SL-8 R/B",
        "OBJECT_ID": "1975-112B",
        "EPOCH": "2026-06-06T14:34:18.778656",
        "MEAN_MOTION": 14.38241224,
        "ECCENTRICITY": 0.00167868,
        "INCLINATION": 74.0602,
        "RA_OF_ASC_NODE": 215.3374,
        "ARG_OF_PERICENTER": 283.5355,
        "MEAN_ANOMALY": 76.3929,
        "EPHEMERIS_TYPE": 0,
        "CLASSIFICATION_TYPE": "U",
        "NORAD_CAT_ID": 8459,
        "ELEMENT_SET_NO": 999,
        "REV_AT_EPOCH": 64465,
        "BSTAR": 6.5609229e-05,
        "MEAN_MOTION_DOT": 1.73e-06,
        "MEAN_MOTION_DDOT": 0
    },
    {
        "OBJECT_NAME": "SL-3 R/B",
        "OBJECT_ID": "1977-057B",
        "EPOCH": "2026-06-06T19:23:54.681792",
        "MEAN_MOTION": 15.47664836,
        "ECCENTRICITY": 0.00059704,
        "INCLINATION": 97.5843,
        "RA_OF_ASC_NODE": 333.8485,
        "ARG_OF_PERICENTER": 330.5427,
        "MEAN_ANOMALY": 29.5485,
        "EPHEMERIS_TYPE": 0,
        "CLASSIFICATION_TYPE": "U",
        "NORAD_CAT_ID": 10114,
        "ELEMENT_SET_NO": 999,
        "REV_AT_EPOCH": 68210,
        "BSTAR": 0.00025325976,
        "MEAN_MOTION_DOT": 0.00012998,
        "MEAN_MOTION_DDOT": 0
    },
    {
        "OBJECT_NAME": "SEASAT 1",
        "OBJECT_ID": "1978-064A",
        "EPOCH": "2026-06-06T15:45:48.034080",
        "MEAN_MOTION": 14.46235255,
        "ECCENTRICITY": 0.00021057,
        "INCLINATION": 108.0163,
        "RA_OF_ASC_NODE": 312.1846,
        "ARG_OF_PERICENTER": 241.5516,
        "MEAN_ANOMALY": 118.5417,
        "EPHEMERIS_TYPE": 0,
        "CLASSIFICATION_TYPE": "U",
        "NORAD_CAT_ID": 10967,
        "ELEMENT_SET_NO": 999,
        "REV_AT_EPOCH": 51937,
        "BSTAR": 0.0001351071,
        "MEAN_MOTION_DOT": 3.47e-06,
        "MEAN_MOTION_DDOT": 0
    },
    {
        "OBJECT_NAME": "SL-14 R/B",
        "OBJECT_ID": "1979-011B",
        "EPOCH": "2026-06-06T20:20:21.653376",
        "MEAN_MOTION": 14.92004794,
        "ECCENTRICITY": 0.0017363,
        "INCLINATION": 82.5244,
        "RA_OF_ASC_NODE": 11.9674,
        "ARG_OF_PERICENTER": 117.0799,
        "MEAN_ANOMALY": 243.2195,
        "EPHEMERIS_TYPE": 0,
        "CLASSIFICATION_TYPE": "U",
        "NORAD_CAT_ID": 11267,
        "ELEMENT_SET_NO": 999,
        "REV_AT_EPOCH": 54207,
        "BSTAR": 5.0350787e-05,
        "MEAN_MOTION_DOT": 5.38e-06,
        "MEAN_MOTION_DDOT": 0
    },
    {
        "OBJECT_NAME": "SL-8 R/B",
        "OBJECT_ID": "1979-089B",
        "EPOCH": "2026-06-06T15:54:18.897408",
        "MEAN_MOTION": 14.42399151,
        "ECCENTRICITY": 0.00148288,
        "INCLINATION": 74.0695,
        "RA_OF_ASC_NODE": 286.3396,
        "ARG_OF_PERICENTER": 74.3565,
        "MEAN_ANOMALY": 285.9226,
        "EPHEMERIS_TYPE": 0,
        "CLASSIFICATION_TYPE": "U",
        "NORAD_CAT_ID": 11574,
        "ELEMENT_SET_NO": 999,
        "REV_AT_EPOCH": 44893,
        "BSTAR": 8.3085359e-05,
        "MEAN_MOTION_DOT": 2.49e-06,
        "MEAN_MOTION_DDOT": 0
    },
    {
        "OBJECT_NAME": "SL-14 R/B",
        "OBJECT_ID": "1980-005B",
        "EPOCH": "2026-06-06T15:37:03.766656",
        "MEAN_MOTION": 14.91020453,
        "ECCENTRICITY": 0.00145986,
        "INCLINATION": 82.5149,
        "RA_OF_ASC_NODE": 222.8343,
        "ARG_OF_PERICENTER": 222.5186,
        "MEAN_ANOMALY": 137.4903,
        "EPHEMERIS_TYPE": 0,
        "CLASSIFICATION_TYPE": "U",
        "NORAD_CAT_ID": 11672,
        "ELEMENT_SET_NO": 999,
        "REV_AT_EPOCH": 48974,
        "BSTAR": 4.6682737e-05,
        "MEAN_MOTION_DOT": 4.87e-06,
        "MEAN_MOTION_DDOT": 0
    },
    {
        "OBJECT_NAME": "SL-8 R/B",
        "OBJECT_ID": "1981-003B",
        "EPOCH": "2026-06-06T15:26:54.761568",
        "MEAN_MOTION": 15.1391257,
        "ECCENTRICITY": 0.02504609,
        "INCLINATION": 82.9375,
        "RA_OF_ASC_NODE": 207.566,
        "ARG_OF_PERICENTER": 228.1522,
        "MEAN_ANOMALY": 129.8094,
        "EPHEMERIS_TYPE": 0,
        "CLASSIFICATION_TYPE": "U",
        "NORAD_CAT_ID": 12139,
        "ELEMENT_SET_NO": 999,
        "REV_AT_EPOCH": 32812,
        "BSTAR": 0.00042877993,
        "MEAN_MOTION_DOT": 0.00017312,
        "MEAN_MOTION_DDOT": 0
    },
    {
        "OBJECT_NAME": "SL-3 R/B",
        "OBJECT_ID": "1981-046B",
        "EPOCH": "2026-06-06T21:15:17.201664",
        "MEAN_MOTION": 15.43984898,
        "ECCENTRICITY": 0.00193371,
        "INCLINATION": 81.2301,
        "RA_OF_ASC_NODE": 182.4765,
        "ARG_OF_PERICENTER": 71.6445,
        "MEAN_ANOMALY": 288.69,
        "EPHEMERIS_TYPE": 0,
        "CLASSIFICATION_TYPE": "U",
        "NORAD_CAT_ID": 12465,
        "ELEMENT_SET_NO": 999,
        "REV_AT_EPOCH": 45218,
        "BSTAR": 0.00027085731,
        "MEAN_MOTION_DOT": 0.00012458,
        "MEAN_MOTION_DDOT": 0
    },
    {
        "OBJECT_NAME": "SL-3 R/B",
        "OBJECT_ID": "1981-103B",
        "EPOCH": "2026-06-06T22:20:48.015456",
        "MEAN_MOTION": 15.22199025,
        "ECCENTRICITY": 0.0012565,
        "INCLINATION": 81.1581,
        "RA_OF_ASC_NODE": 108.6809,
        "ARG_OF_PERICENTER": 352.5547,
        "MEAN_ANOMALY": 7.5496,
        "EPHEMERIS_TYPE": 0,
        "CLASSIFICATION_TYPE": "U",
        "NORAD_CAT_ID": 12904,
        "ELEMENT_SET_NO": 999,
        "REV_AT_EPOCH": 98680,
        "BSTAR": 0.00024903227,
        "MEAN_MOTION_DOT": 5.755e-05,
        "MEAN_MOTION_DDOT": 0
    },
    {
        "OBJECT_NAME": "SL-3 R/B",
        "OBJECT_ID": "1982-013B",
        "EPOCH": "2026-06-06T23:19:23.487168",
        "MEAN_MOTION": 15.22723687,
        "ECCENTRICITY": 0.00207862,
        "INCLINATION": 81.1745,
        "RA_OF_ASC_NODE": 56.0472,
        "ARG_OF_PERICENTER": 236.6827,
        "MEAN_ANOMALY": 123.2415,
        "EPHEMERIS_TYPE": 0,
        "CLASSIFICATION_TYPE": "U",
        "NORAD_CAT_ID": 13068,
        "ELEMENT_SET_NO": 999,
        "REV_AT_EPOCH": 41793,
        "BSTAR": 0.00015846312,
        "MEAN_MOTION_DOT": 3.742e-05,
        "MEAN_MOTION_DDOT": 0
    },
    {
        "OBJECT_NAME": "SL-3 R/B",
        "OBJECT_ID": "1982-039B",
        "EPOCH": "2026-06-06T20:00:07.564032",
        "MEAN_MOTION": 15.10475568,
        "ECCENTRICITY": 0.00300406,
        "INCLINATION": 81.1422,
        "RA_OF_ASC_NODE": 113.0512,
        "ARG_OF_PERICENTER": 29.8394,
        "MEAN_ANOMALY": 330.4536,
        "EPHEMERIS_TYPE": 0,
        "CLASSIFICATION_TYPE": "U",
        "NORAD_CAT_ID": 13154,
        "ELEMENT_SET_NO": 999,
        "REV_AT_EPOCH": 39509,
        "BSTAR": 0.00021279769,
        "MEAN_MOTION_DOT": 3.562e-05,
        "MEAN_MOTION_DDOT": 0
    },
    {
        "OBJECT_NAME": "SL-3 R/B",
        "OBJECT_ID": "1982-079B",
        "EPOCH": "2026-06-06T21:14:59.311680",
        "MEAN_MOTION": 15.25702693,
        "ECCENTRICITY": 0.00229271,
        "INCLINATION": 81.1459,
        "RA_OF_ASC_NODE": 87.6708,
        "ARG_OF_PERICENTER": 221.0843,
        "MEAN_ANOMALY": 138.8666,
        "EPHEMERIS_TYPE": 0,
        "CLASSIFICATION_TYPE": "U",
        "NORAD_CAT_ID": 13403,
        "ELEMENT_SET_NO": 999,
        "REV_AT_EPOCH": 39129,
        "BSTAR": 0.00022604453,
        "MEAN_MOTION_DOT": 5.828e-05,
        "MEAN_MOTION_DDOT": 0
    },
    {
        "OBJECT_NAME": "SL-14 R/B",
        "OBJECT_ID": "1982-092B",
        "EPOCH": "2026-06-06T16:30:14.028768",
        "MEAN_MOTION": 14.86740299,
        "ECCENTRICITY": 0.00205862,
        "INCLINATION": 82.5687,
        "RA_OF_ASC_NODE": 58.1273,
        "ARG_OF_PERICENTER": 10.4752,
        "MEAN_ANOMALY": 51.2744,
        "EPHEMERIS_TYPE": 0,
        "CLASSIFICATION_TYPE": "U",
        "NORAD_CAT_ID": 13553,
        "ELEMENT_SET_NO": 999,
        "REV_AT_EPOCH": 34215,
        "BSTAR": 4.9974949e-05,
        "MEAN_MOTION_DOT": 4.71e-06,
        "MEAN_MOTION_DDOT": 0
    }
]